[{"OBJECT_NAME":"STARLINK-35063","OBJECT_ID":"2025-200J","EPOCH":"2026-03-09T17:50:32.797824","MEAN_MOTION":15.05649547,"ECCENTRICITY":9.152e-5,"INCLINATION":97.6022,"RA_OF_ASC_NODE":139.9246,"ARG_OF_PERICENTER":90.9918,"MEAN_ANOMALY":269.1413,"EPHEMERIS_TYPE":0,"CLASSIFICATION_TYPE":"U","NORAD_CAT_ID":65528,"ELEMENT_SET_NO":999,"REV_AT_EPOCH":2914,"BSTAR":0.00041114501,"MEAN_MOTION_DOT":5.876e-5,"MEAN_MOTION_DDOT":0},{"OBJECT_NAME":"CZ-4B DEB","OBJECT_ID":"2004-035N","EPOCH":"2026-03-08T07:19:22.074240","MEAN_MOTION":15.17712882,"ECCENTRICITY":0.00700404,"INCLINATION":97.867,"RA_OF_ASC_NODE":11.9774,"ARG_OF_PERICENTER":119.6038,"MEAN_ANOMALY":241.2197,"EPHEMERIS_TYPE":0,"CLASSIFICATION_TYPE":"U","NORAD_CAT_ID":35270,"ELEMENT_SET_NO":999,"REV_AT_EPOCH":13623,"BSTAR":0.0033008842,"MEAN_MOTION_DOT":0.00071474,"MEAN_MOTION_DDOT":0}]
